{
  "norad_id": 45212,
  "name": "STARLINK-1231",
  "history": [
    {
      "epoch": "2026-03-28T20:31:31.501344",
      "apogee_km": 500.4441736188601,
      "perigee_km": 495.31287827246706,
      "latitude_deg": 28.257837230655813,
      "longitude_deg": -136.6983318401035,
      "semi_major_axis_km": 6876.015525945663,
      "eccentricity": 0.00037313,
      "inclination_deg": 53.0417,
      "raan_deg": 287.6572,
      "arg_perigee_deg": 165.0527,
      "mean_anomaly_deg": 195.058,
      "mean_motion_rev_day": 15.22640892
    }
  ]
}